[
  {
    "OBJECT_NAME": "STARLINK-30230",
    "OBJECT_ID": "23113J",
    "EPOCH": "2025-11-11T05:46:36.604416",
    "MEAN_MOTION": 15.025462,
    "ECCENTRICITY": 0.0001087,
    "INCLINATION": 43.0038,
    "RA_OF_ASC_NODE": 300.84,
    "ARG_OF_PERICENTER": 269.2526,
    "MEAN_ANOMALY": 90.8192,
    "EPHEMERIS_TYPE": 0,
    "CLASSIFICATION_TYPE": "U",
    "NORAD_CAT_ID": 57503,
    "ELEMENT_SET_NO": 999,
    "REV_AT_EPOCH": 12573,
    "BSTAR": 0.0,
    "MEAN_MOTION_DOT": -1.653e-05,
    "MEAN_MOTION_DDOT": 0.0,
    "TLE_LINE1": "1 57503U 23113J   25315.24070144 -.00001653  00000+0 -10730-3 0  9998",
    "TLE_LINE2": "2 57503  43.0038 300.8400 0001087 269.2526  90.8192 15.02546200125735",
    "COMMENT": "Grouped by shell and plane from TLE"
  },
  {
    "OBJECT_NAME": "STARLINK-30213",
    "OBJECT_ID": "23113K",
    "EPOCH": "2025-11-11T00:40:25.185792",
    "MEAN_MOTION": 15.02535386,
    "ECCENTRICITY": 0.0001053,
    "INCLINATION": 43.0034,
    "RA_OF_ASC_NODE": 302.6747,
    "ARG_OF_PERICENTER": 277.5097,
    "MEAN_ANOMALY": 82.5626,
    "EPHEMERIS_TYPE": 0,
    "CLASSIFICATION_TYPE": "U",
    "NORAD_CAT_ID": 57504,
    "ELEMENT_SET_NO": 999,
    "REV_AT_EPOCH": 12580,
    "BSTAR": 0.00012637000000000003,
    "MEAN_MOTION_DOT": 1.504e-05,
    "MEAN_MOTION_DDOT": 0.0,
    "TLE_LINE1": "1 57504U 23113K   25315.02806928  .00001504  00000+0  12637-3 0  9993",
    "TLE_LINE2": "2 57504  43.0034 302.6747 0001053 277.5097  82.5626 15.02535386125805",
    "COMMENT": "Grouped by shell and plane from TLE"
  },
  {
    "OBJECT_NAME": "STARLINK-30212",
    "OBJECT_ID": "23113M",
    "EPOCH": "2025-11-11T00:35:37.138560",
    "MEAN_MOTION": 15.02539689,
    "ECCENTRICITY": 0.0001397,
    "INCLINATION": 43.0056,
    "RA_OF_ASC_NODE": 302.6536,
    "ARG_OF_PERICENTER": 269.977,
    "MEAN_ANOMALY": 90.0912,
    "EPHEMERIS_TYPE": 0,
    "CLASSIFICATION_TYPE": "U",
    "NORAD_CAT_ID": 57506,
    "ELEMENT_SET_NO": 999,
    "REV_AT_EPOCH": 12564,
    "BSTAR": 0.00015303,
    "MEAN_MOTION_DOT": 1.864e-05,
    "MEAN_MOTION_DDOT": 0.0,
    "TLE_LINE1": "1 57506U 23113M   25315.02473540  .00001864  00000+0  15303-3 0  9997",
    "TLE_LINE2": "2 57506  43.0056 302.6536 0001397 269.9770  90.0912 15.02539689125645",
    "COMMENT": "Grouped by shell and plane from TLE"
  },
  {
    "OBJECT_NAME": "STARLINK-30219",
    "OBJECT_ID": "23113N",
    "EPOCH": "2025-11-11T06:53:44.745216",
    "MEAN_MOTION": 15.02543326,
    "ECCENTRICITY": 0.0001262,
    "INCLINATION": 43.0047,
    "RA_OF_ASC_NODE": 301.1988,
    "ARG_OF_PERICENTER": 282.5733,
    "MEAN_ANOMALY": 77.4968,
    "EPHEMERIS_TYPE": 0,
    "CLASSIFICATION_TYPE": "U",
    "NORAD_CAT_ID": 57507,
    "ELEMENT_SET_NO": 999,
    "REV_AT_EPOCH": 12584,
    "BSTAR": 0.0,
    "MEAN_MOTION_DOT": -2.85e-06,
    "MEAN_MOTION_DDOT": 0.0,
    "TLE_LINE1": "1 57507U 23113N   25315.28732344 -.00000285  00000+0 -60028-5 0  9990",
    "TLE_LINE2": "2 57507  43.0047 301.1988 0001262 282.5733  77.4968 15.02543326125847",
    "COMMENT": "Grouped by shell and plane from TLE"
  },
  {
    "OBJECT_NAME": "STARLINK-30074",
    "OBJECT_ID": "23113P",
    "EPOCH": "2025-11-11T05:37:01.538112",
    "MEAN_MOTION": 15.02536225,
    "ECCENTRICITY": 0.0001019,
    "INCLINATION": 43.0048,
    "RA_OF_ASC_NODE": 300.7913,
    "ARG_OF_PERICENTER": 271.3265,
    "MEAN_ANOMALY": 88.7461,
    "EPHEMERIS_TYPE": 0,
    "CLASSIFICATION_TYPE": "U",
    "NORAD_CAT_ID": 57508,
    "ELEMENT_SET_NO": 999,
    "REV_AT_EPOCH": 12563,
    "BSTAR": 4.0945e-05,
    "MEAN_MOTION_DOT": 3.5e-06,
    "MEAN_MOTION_DDOT": 0.0,
    "TLE_LINE1": "1 57508U 23113P   25315.23404558  .00000350  00000+0  40945-4 0  9995",
    "TLE_LINE2": "2 57508  43.0048 300.7913 0001019 271.3265  88.7461 15.02536225125638",
    "COMMENT": "Grouped by shell and plane from TLE"
  },
  {
    "OBJECT_NAME": "STARLINK-30082",
    "OBJECT_ID": "23113Q",
    "EPOCH": "2025-11-11T06:34:36.260256",
    "MEAN_MOTION": 15.02513846,
    "ECCENTRICITY": 0.0001374,
    "INCLINATION": 43.0057,
    "RA_OF_ASC_NODE": 301.0985,
    "ARG_OF_PERICENTER": 273.4632,
    "MEAN_ANOMALY": 86.6053,
    "EPHEMERIS_TYPE": 0,
    "CLASSIFICATION_TYPE": "U",
    "NORAD_CAT_ID": 57509,
    "ELEMENT_SET_NO": 999,
    "REV_AT_EPOCH": 12584,
    "BSTAR": 0.0,
    "MEAN_MOTION_DOT": -2.028e-05,
    "MEAN_MOTION_DDOT": 0.0,
    "TLE_LINE1": "1 57509U 23113Q   25315.27403079 -.00002028  00000+0 -13517-3 0  9997",
    "TLE_LINE2": "2 57509  43.0057 301.0985 0001374 273.4632  86.6053 15.02513846125848",
    "COMMENT": "Grouped by shell and plane from TLE"
  },
  {
    "OBJECT_NAME": "STARLINK-30153",
    "OBJECT_ID": "23113R",
    "EPOCH": "2025-11-11T06:29:46.436640",
    "MEAN_MOTION": 15.02537453,
    "ECCENTRICITY": 0.0001298,
    "INCLINATION": 43.0056,
    "RA_OF_ASC_NODE": 301.0853,
    "ARG_OF_PERICENTER": 268.584,
    "MEAN_ANOMALY": 91.4854,
    "EPHEMERIS_TYPE": 0,
    "CLASSIFICATION_TYPE": "U",
    "NORAD_CAT_ID": 57510,
    "ELEMENT_SET_NO": 999,
    "REV_AT_EPOCH": 12573,
    "BSTAR": 6.8568e-05,
    "MEAN_MOTION_DOT": 7.23e-06,
    "MEAN_MOTION_DDOT": 0.0,
    "TLE_LINE1": "1 57510U 23113R   25315.27067635  .00000723  00000+0  68568-4 0  9998",
    "TLE_LINE2": "2 57510  43.0056 301.0853 0001298 268.5840  91.4854 15.02537453125735",
    "COMMENT": "Grouped by shell and plane from TLE"
  },
  {
    "OBJECT_NAME": "STARLINK-30147",
    "OBJECT_ID": "23113S",
    "EPOCH": "2025-11-11T00:21:14.360256",
    "MEAN_MOTION": 15.02537996,
    "ECCENTRICITY": 0.0001362,
    "INCLINATION": 43.0051,
    "RA_OF_ASC_NODE": 302.5936,
    "ARG_OF_PERICENTER": 274.3381,
    "MEAN_ANOMALY": 85.7305,
    "EPHEMERIS_TYPE": 0,
    "CLASSIFICATION_TYPE": "U",
    "NORAD_CAT_ID": 57511,
    "ELEMENT_SET_NO": 999,
    "REV_AT_EPOCH": 12580,
    "BSTAR": 6.4133e-05,
    "MEAN_MOTION_DOT": 6.63e-06,
    "MEAN_MOTION_DDOT": 0.0,
    "TLE_LINE1": "1 57511U 23113S   25315.01474954  .00000663  00000+0  64133-4 0  9994",
    "TLE_LINE2": "2 57511  43.0051 302.5936 0001362 274.3381  85.7305 15.02537996125803",
    "COMMENT": "Grouped by shell and plane from TLE"
  },
  {
    "OBJECT_NAME": "STARLINK-30168",
    "OBJECT_ID": "23113U",
    "EPOCH": "2025-11-11T00:26:02.071392",
    "MEAN_MOTION": 15.02536304,
    "ECCENTRICITY": 0.0001396,
    "INCLINATION": 43.0036,
    "RA_OF_ASC_NODE": 302.5861,
    "ARG_OF_PERICENTER": 276.5048,
    "MEAN_ANOMALY": 83.5635,
    "EPHEMERIS_TYPE": 0,
    "CLASSIFICATION_TYPE": "U",
    "NORAD_CAT_ID": 57513,
    "ELEMENT_SET_NO": 999,
    "REV_AT_EPOCH": 12564,
    "BSTAR": 7.086000000000001e-05,
    "MEAN_MOTION_DOT": 7.54e-06,
    "MEAN_MOTION_DDOT": 0.0,
    "TLE_LINE1": "1 57513U 23113U   25315.01807953  .00000754  00000+0  70860-4 0  9990",
    "TLE_LINE2": "2 57513  43.0036 302.5861 0001396 276.5048  83.5635 15.02536304125642",
    "COMMENT": "Grouped by shell and plane from TLE"
  },
  {
    "OBJECT_NAME": "STARLINK-30231",
    "OBJECT_ID": "23113V",
    "EPOCH": "2025-11-11T06:24:59.805504",
    "MEAN_MOTION": 15.02548329,
    "ECCENTRICITY": 0.0001045,
    "INCLINATION": 43.0034,
    "RA_OF_ASC_NODE": 301.036,
    "ARG_OF_PERICENTER": 277.3764,
    "MEAN_ANOMALY": 82.696,
    "EPHEMERIS_TYPE": 0,
    "CLASSIFICATION_TYPE": "U",
    "NORAD_CAT_ID": 57514,
    "ELEMENT_SET_NO": 999,
    "REV_AT_EPOCH": 12584,
    "BSTAR": 0.00063168,
    "MEAN_MOTION_DOT": 8.342e-05,
    "MEAN_MOTION_DDOT": 0.0,
    "TLE_LINE1": "1 57514U 23113V   25315.26735886  .00008342  00000+0  63168-3 0  9996",
    "TLE_LINE2": "2 57514  43.0034 301.0360 0001045 277.3764  82.6960 15.02548329125847",
    "COMMENT": "Grouped by shell and plane from TLE"
  },
  {
    "OBJECT_NAME": "STARLINK-30081",
    "OBJECT_ID": "23113W",
    "EPOCH": "2025-11-11T06:05:47.946624",
    "MEAN_MOTION": 15.02533138,
    "ECCENTRICITY": 0.0001346,
    "INCLINATION": 43.0064,
    "RA_OF_ASC_NODE": 300.9606,
    "ARG_OF_PERICENTER": 274.8662,
    "MEAN_ANOMALY": 85.2027,
    "EPHEMERIS_TYPE": 0,
    "CLASSIFICATION_TYPE": "U",
    "NORAD_CAT_ID": 57515,
    "ELEMENT_SET_NO": 999,
    "REV_AT_EPOCH": 12584,
    "BSTAR": 0.00017626,
    "MEAN_MOTION_DOT": 2.178e-05,
    "MEAN_MOTION_DDOT": 0.0,
    "TLE_LINE1": "1 57515U 23113W   25315.25402716  .00002178  00000+0  17626-3 0  9998",
    "TLE_LINE2": "2 57515  43.0064 300.9606 0001346 274.8662  85.2027 15.02533138125840",
    "COMMENT": "Grouped by shell and plane from TLE"
  },
  {
    "OBJECT_NAME": "STARLINK-30149",
    "OBJECT_ID": "23113X",
    "EPOCH": "2025-11-11T05:51:24.706080",
    "MEAN_MOTION": 15.02536561,
    "ECCENTRICITY": 0.0001219,
    "INCLINATION": 43.0052,
    "RA_OF_ASC_NODE": 300.879,
    "ARG_OF_PERICENTER": 268.8775,
    "MEAN_ANOMALY": 91.1928,
    "EPHEMERIS_TYPE": 0,
    "CLASSIFICATION_TYPE": "U",
    "NORAD_CAT_ID": 57516,
    "ELEMENT_SET_NO": 999,
    "REV_AT_EPOCH": 12574,
    "BSTAR": 6.978299999999999e-05,
    "MEAN_MOTION_DOT": 7.39e-06,
    "MEAN_MOTION_DDOT": 0.0,
    "TLE_LINE1": "1 57516U 23113X   25315.24403595  .00000739  00000+0  69783-4 0  9997",
    "TLE_LINE2": "2 57516  43.0052 300.8790 0001219 268.8775  91.1928 15.02536561125746",
    "COMMENT": "Grouped by shell and plane from TLE"
  },
  {
    "OBJECT_NAME": "STARLINK-30943",
    "OBJECT_ID": "23183N",
    "EPOCH": "2025-11-11T01:13:52.122144",
    "MEAN_MOTION": 15.0253207,
    "ECCENTRICITY": 0.0001062,
    "INCLINATION": 43.0026,
    "RA_OF_ASC_NODE": 302.2972,
    "ARG_OF_PERICENTER": 249.8106,
    "MEAN_ANOMALY": 110.2622,
    "EPHEMERIS_TYPE": 0,
    "CLASSIFICATION_TYPE": "U",
    "NORAD_CAT_ID": 58449,
    "ELEMENT_SET_NO": 999,
    "REV_AT_EPOCH": 10916,
    "BSTAR": 7.4784e-05,
    "MEAN_MOTION_DOT": 8.07e-06,
    "MEAN_MOTION_DDOT": 0.0,
    "TLE_LINE1": "1 58449U 23183N   25315.05129771  .00000807  00000+0  74784-4 0  9993",
    "TLE_LINE2": "2 58449  43.0026 302.2972 0001062 249.8106 110.2622 15.02532070109167",
    "COMMENT": "Grouped by shell and plane from TLE"
  }
]